[{"OBJECT_NAME":"TIANMU-1 08","OBJECT_ID":"2023-101B","EPOCH":"2026-06-26T17:55:51.980160","MEAN_MOTION":15.29917273,"ECCENTRICITY":0.0005688,"INCLINATION":97.2582,"RA_OF_ASC_NODE":227.965,"ARG_OF_PERICENTER":92.2484,"MEAN_ANOMALY":267.9408,"EPHEMERIS_TYPE":0,"CLASSIFICATION_TYPE":"U","NORAD_CAT_ID":57400,"ELEMENT_SET_NO":999,"REV_AT_EPOCH":16310,"BSTAR":0.0002229,"MEAN_MOTION_DOT":6.385e-5,"MEAN_MOTION_DDOT":0},{"OBJECT_NAME":"TIANMU-1 09","OBJECT_ID":"2023-101C","EPOCH":"2026-06-26T17:31:41.619648","MEAN_MOTION":15.29951332,"ECCENTRICITY":0.000489,"INCLINATION":97.2539,"RA_OF_ASC_NODE":227.3596,"ARG_OF_PERICENTER":105.6522,"MEAN_ANOMALY":254.5259,"EPHEMERIS_TYPE":0,"CLASSIFICATION_TYPE":"U","NORAD_CAT_ID":57401,"ELEMENT_SET_NO":999,"REV_AT_EPOCH":16310,"BSTAR":0.00021604,"MEAN_MOTION_DOT":6.192e-5,"MEAN_MOTION_DDOT":0},{"OBJECT_NAME":"TIANMU-1 10","OBJECT_ID":"2023-101D","EPOCH":"2026-06-26T16:45:21.220992","MEAN_MOTION":15.29922952,"ECCENTRICITY":0.0006449,"INCLINATION":97.262,"RA_OF_ASC_NODE":228.3883,"ARG_OF_PERICENTER":101.9721,"MEAN_ANOMALY":258.2243,"EPHEMERIS_TYPE":0,"CLASSIFICATION_TYPE":"U","NORAD_CAT_ID":57402,"ELEMENT_SET_NO":999,"REV_AT_EPOCH":16309,"BSTAR":0.00022529,"MEAN_MOTION_DOT":6.456e-5,"MEAN_MOTION_DDOT":0},{"OBJECT_NAME":"FENGYUN 3F","OBJECT_ID":"2023-111A","EPOCH":"2026-06-26T18:27:11.970720","MEAN_MOTION":14.1994052,"ECCENTRICITY":0.000155,"INCLINATION":98.6834,"RA_OF_ASC_NODE":247.599,"ARG_OF_PERICENTER":86.234,"MEAN_ANOMALY":273.9013,"EPHEMERIS_TYPE":0,"CLASSIFICATION_TYPE":"U","NORAD_CAT_ID":57490,"ELEMENT_SET_NO":999,"REV_AT_EPOCH":15022,"BSTAR":3.3391e-5,"MEAN_MOTION_DOT":2.8e-7,"MEAN_MOTION_DDOT":0},{"OBJECT_NAME":"ARKTIKA-M 2","OBJECT_ID":"2023-198A","EPOCH":"2026-06-23T17:46:44.121216","MEAN_MOTION":2.00611379,"ECCENTRICITY":0.69049491,"INCLINATION":63.2421,"RA_OF_ASC_NODE":153.6337,"ARG_OF_PERICENTER":267.3888,"MEAN_ANOMALY":18.7567,"EPHEMERIS_TYPE":0,"CLASSIFICATION_TYPE":"U","NORAD_CAT_ID":58584,"ELEMENT_SET_NO":999,"REV_AT_EPOCH":1845,"BSTAR":0,"MEAN_MOTION_DOT":1.67e-6,"MEAN_MOTION_DDOT":0},{"OBJECT_NAME":"TIANMU-1 11","OBJECT_ID":"2023-205A","EPOCH":"2026-06-26T18:02:27.370752","MEAN_MOTION":15.27088005,"ECCENTRICITY":0.000779,"INCLINATION":97.3445,"RA_OF_ASC_NODE":199.1584,"ARG_OF_PERICENTER":342.6224,"MEAN_ANOMALY":17.4747,"EPHEMERIS_TYPE":0,"CLASSIFICATION_TYPE":"U","NORAD_CAT_ID":58645,"ELEMENT_SET_NO":999,"REV_AT_EPOCH":13898,"BSTAR":0.00021286,"MEAN_MOTION_DOT":5.587e-5,"MEAN_MOTION_DDOT":0},{"OBJECT_NAME":"TIANMU-1 12","OBJECT_ID":"2023-205B","EPOCH":"2026-06-26T12:37:00.923232","MEAN_MOTION":15.27053512,"ECCENTRICITY":0.0005656,"INCLINATION":97.3433,"RA_OF_ASC_NODE":198.6898,"ARG_OF_PERICENTER":327.1356,"MEAN_ANOMALY":32.9531,"EPHEMERIS_TYPE":0,"CLASSIFICATION_TYPE":"U","NORAD_CAT_ID":58646,"ELEMENT_SET_NO":999,"REV_AT_EPOCH":13893,"BSTAR":0.00022975,"MEAN_MOTION_DOT":6.028e-5,"MEAN_MOTION_DDOT":0},{"OBJECT_NAME":"TIANMU-1 13","OBJECT_ID":"2023-205C","EPOCH":"2026-06-26T16:33:23.355360","MEAN_MOTION":15.26906826,"ECCENTRICITY":0.000505,"INCLINATION":97.3461,"RA_OF_ASC_NODE":199.1254,"ARG_OF_PERICENTER":299.4029,"MEAN_ANOMALY":60.6705,"EPHEMERIS_TYPE":0,"CLASSIFICATION_TYPE":"U","NORAD_CAT_ID":58647,"ELEMENT_SET_NO":999,"REV_AT_EPOCH":13895,"BSTAR":0.00021367,"MEAN_MOTION_DOT":5.575e-5,"MEAN_MOTION_DDOT":0},{"OBJECT_NAME":"TIANMU-1 14","OBJECT_ID":"2023-205D","EPOCH":"2026-06-26T17:46:03.139104","MEAN_MOTION":15.26952503,"ECCENTRICITY":0.0005933,"INCLINATION":97.3397,"RA_OF_ASC_NODE":198.3494,"ARG_OF_PERICENTER":305.0882,"MEAN_ANOMALY":54.98,"EPHEMERIS_TYPE":0,"CLASSIFICATION_TYPE":"U","NORAD_CAT_ID":58648,"ELEMENT_SET_NO":999,"REV_AT_EPOCH":13896,"BSTAR":0.00022237,"MEAN_MOTION_DOT":5.814e-5,"MEAN_MOTION_DDOT":0},{"OBJECT_NAME":"TIANMU-1 19","OBJECT_ID":"2023-208A","EPOCH":"2026-06-26T18:14:29.755104","MEAN_MOTION":15.31710765,"ECCENTRICITY":0.0003436,"INCLINATION":97.451,"RA_OF_ASC_NODE":294.1094,"ARG_OF_PERICENTER":281.5114,"MEAN_ANOMALY":78.5742,"EPHEMERIS_TYPE":0,"CLASSIFICATION_TYPE":"U","NORAD_CAT_ID":58660,"ELEMENT_SET_NO":999,"REV_AT_EPOCH":13879,"BSTAR":0.00026578,"MEAN_MOTION_DOT":8.061e-5,"MEAN_MOTION_DDOT":0},{"OBJECT_NAME":"TIANMU-1 20","OBJECT_ID":"2023-208B","EPOCH":"2026-06-26T15:50:13.144704","MEAN_MOTION":15.32898737,"ECCENTRICITY":0.0005576,"INCLINATION":97.4451,"RA_OF_ASC_NODE":294.6538,"ARG_OF_PERICENTER":292.3834,"MEAN_ANOMALY":67.6817,"EPHEMERIS_TYPE":0,"CLASSIFICATION_TYPE":"U","NORAD_CAT_ID":58661,"ELEMENT_SET_NO":999,"REV_AT_EPOCH":13887,"BSTAR":0.00026135,"MEAN_MOTION_DOT":8.229e-5,"MEAN_MOTION_DDOT":0},{"OBJECT_NAME":"TIANMU-1 21","OBJECT_ID":"2023-208C","EPOCH":"2026-06-26T18:20:31.178400","MEAN_MOTION":15.3523826,"ECCENTRICITY":0.0005662,"INCLINATION":97.451,"RA_OF_ASC_NODE":297.4811,"ARG_OF_PERICENTER":281.5044,"MEAN_ANOMALY":78.5563,"EPHEMERIS_TYPE":0,"CLASSIFICATION_TYPE":"U","NORAD_CAT_ID":58662,"ELEMENT_SET_NO":999,"REV_AT_EPOCH":13903,"BSTAR":0.0002764,"MEAN_MOTION_DOT":9.38e-5,"MEAN_MOTION_DDOT":0},{"OBJECT_NAME":"TIANMU-1 22","OBJECT_ID":"2023-208D","EPOCH":"2026-06-26T14:44:45.689280","MEAN_MOTION":15.31181798,"ECCENTRICITY":0.0002412,"INCLINATION":97.4505,"RA_OF_ASC_NODE":293.891,"ARG_OF_PERICENTER":322.2808,"MEAN_ANOMALY":37.8264,"EPHEMERIS_TYPE":0,"CLASSIFICATION_TYPE":"U","NORAD_CAT_ID":58663,"ELEMENT_SET_NO":999,"REV_AT_EPOCH":13877,"BSTAR":0.00025783,"MEAN_MOTION_DOT":7.689e-5,"MEAN_MOTION_DDOT":0},{"OBJECT_NAME":"TIANMU-1 15","OBJECT_ID":"2024-004A","EPOCH":"2026-06-26T19:07:46.283808","MEAN_MOTION":15.26803621,"ECCENTRICITY":0.0005701,"INCLINATION":97.4665,"RA_OF_ASC_NODE":3.9892,"ARG_OF_PERICENTER":312.2214,"MEAN_ANOMALY":47.854,"EPHEMERIS_TYPE":0,"CLASSIFICATION_TYPE":"U","NORAD_CAT_ID":58700,"ELEMENT_SET_NO":999,"REV_AT_EPOCH":13724,"BSTAR":0.00022557,"MEAN_MOTION_DOT":5.87e-5,"MEAN_MOTION_DDOT":0},{"OBJECT_NAME":"TIANMU-1 16","OBJECT_ID":"2024-004B","EPOCH":"2026-06-26T17:19:47.145216","MEAN_MOTION":15.26839569,"ECCENTRICITY":0.0004894,"INCLINATION":97.4613,"RA_OF_ASC_NODE":3.1413,"ARG_OF_PERICENTER":332.0268,"MEAN_ANOMALY":28.0706,"EPHEMERIS_TYPE":0,"CLASSIFICATION_TYPE":"U","NORAD_CAT_ID":58701,"ELEMENT_SET_NO":999,"REV_AT_EPOCH":13723,"BSTAR":0.00021689,"MEAN_MOTION_DOT":5.646e-5,"MEAN_MOTION_DDOT":0},{"OBJECT_NAME":"TIANMU-1 17","OBJECT_ID":"2024-004C","EPOCH":"2026-06-26T18:33:13.294656","MEAN_MOTION":15.26839006,"ECCENTRICITY":0.0004573,"INCLINATION":97.464,"RA_OF_ASC_NODE":3.6806,"ARG_OF_PERICENTER":339.3613,"MEAN_ANOMALY":20.744,"EPHEMERIS_TYPE":0,"CLASSIFICATION_TYPE":"U","NORAD_CAT_ID":58702,"ELEMENT_SET_NO":999,"REV_AT_EPOCH":13723,"BSTAR":0.00020881,"MEAN_MOTION_DOT":5.433e-5,"MEAN_MOTION_DDOT":0},{"OBJECT_NAME":"TIANMU-1 18","OBJECT_ID":"2024-004D","EPOCH":"2026-06-26T11:39:50.465664","MEAN_MOTION":15.26886664,"ECCENTRICITY":0.0003354,"INCLINATION":97.4659,"RA_OF_ASC_NODE":3.6545,"ARG_OF_PERICENTER":326.1029,"MEAN_ANOMALY":33.9995,"EPHEMERIS_TYPE":0,"CLASSIFICATION_TYPE":"U","NORAD_CAT_ID":58703,"ELEMENT_SET_NO":999,"REV_AT_EPOCH":13719,"BSTAR":0.00021648,"MEAN_MOTION_DOT":5.643e-5,"MEAN_MOTION_DDOT":0}]
