TIANMU-1 08             
1 57400U 23101B   26177.74712940  .00006385  00000+0  22290-3 0  9999
2 57400  97.2582 227.9650 0005688  92.2484 267.9408 15.29917273163101
TIANMU-1 09             
1 57401U 23101C   26177.73034282  .00006192  00000+0  21604-3 0  9999
2 57401  97.2539 227.3596 0004890 105.6522 254.5259 15.29951332163103
TIANMU-1 10             
1 57402U 23101D   26177.69816228  .00006456  00000+0  22529-3 0  9993
2 57402  97.2620 228.3883 0006449 101.9721 258.2243 15.29922952163095
FENGYUN 3F              
1 57490U 23111A   26177.76888855  .00000028  00000+0  33391-4 0  9993
2 57490  98.6834 247.5990 0001550  86.2340 273.9013 14.19940520150225
ARKTIKA-M 2             
1 58584U 23198A   26174.74078844  .00000167  00000+0  00000+0 0  9997
2 58584  63.2421 153.6337 6904949 267.3888  18.7567  2.00611379 18452
TIANMU-1 11             
1 58645U 23205A   26177.75170568  .00005587  00000+0  21286-3 0  9998
2 58645  97.3445 199.1584 0007790 342.6224  17.4747 15.27088005138980
TIANMU-1 12             
1 58646U 23205B   26177.52570513  .00006028  00000+0  22975-3 0  9995
2 58646  97.3433 198.6898 0005656 327.1356  32.9531 15.27053512138936
TIANMU-1 13             
1 58647U 23205C   26177.68985365  .00005575  00000+0  21367-3 0  9998
2 58647  97.3461 199.1254 0005050 299.4029  60.6705 15.26906826138953
TIANMU-1 14             
1 58648U 23205D   26177.74031411  .00005814  00000+0  22237-3 0  9993
2 58648  97.3397 198.3494 0005933 305.0882  54.9800 15.26952503138966
TIANMU-1 19             
1 58660U 23208A   26177.76006661  .00008061  00000+0  26578-3 0  9990
2 58660  97.4510 294.1094 0003436 281.5114  78.5742 15.31710765138797
TIANMU-1 20             
1 58661U 23208B   26177.65987436  .00008229  00000+0  26135-3 0  9992
2 58661  97.4451 294.6538 0005576 292.3834  67.6817 15.32898737138874
TIANMU-1 21             
1 58662U 23208C   26177.76424975  .00009380  00000+0  27640-3 0  9990
2 58662  97.4510 297.4811 0005662 281.5044  78.5563 15.35238260139035
TIANMU-1 22             
1 58663U 23208D   26177.61441770  .00007689  00000+0  25783-3 0  9993
2 58663  97.4505 293.8910 0002412 322.2808  37.8264 15.31181798138776
TIANMU-1 15             
1 58700U 24004A   26177.79706347  .00005870  00000+0  22557-3 0  9999
2 58700  97.4665   3.9892 0005701 312.2214  47.8540 15.26803621137247
TIANMU-1 16             
1 58701U 24004B   26177.72207344  .00005646  00000+0  21689-3 0  9992
2 58701  97.4613   3.1413 0004894 332.0268  28.0706 15.26839569137237
TIANMU-1 17             
1 58702U 24004C   26177.77307054  .00005433  00000+0  20881-3 0  9994
2 58702  97.4640   3.6806 0004573 339.3613  20.7440 15.26839006137237
TIANMU-1 18             
1 58703U 24004D   26177.48600076  .00005643  00000+0  21648-3 0  9998
2 58703  97.4659   3.6545 0003354 326.1029  33.9995 15.26886664137197
